[{"OBJECT_NAME":"ONEWEB-0267","OBJECT_ID":"2021-060U","EPOCH":"2026-03-09T23:09:12.675456","MEAN_MOTION":13.16593432,"ECCENTRICITY":0.0001657,"INCLINATION":87.9004,"RA_OF_ASC_NODE":248.506,"ARG_OF_PERICENTER":102.7004,"MEAN_ANOMALY":257.4312,"EPHEMERIS_TYPE":0,"CLASSIFICATION_TYPE":"U","NORAD_CAT_ID":48985,"ELEMENT_SET_NO":999,"REV_AT_EPOCH":22653,"BSTAR":9.9371329e-5,"MEAN_MOTION_DOT":5.1e-7,"MEAN_MOTION_DDOT":0},{"OBJECT_NAME":"COSMOS 397 DEB","OBJECT_ID":"1971-015P","EPOCH":"2026-03-09T09:54:15.689376","MEAN_MOTION":13.8716954,"ECCENTRICITY":0.05634267,"INCLINATION":65.6057,"RA_OF_ASC_NODE":70.0835,"ARG_OF_PERICENTER":348.8137,"MEAN_ANOMALY":10.0814,"EPHEMERIS_TYPE":0,"CLASSIFICATION_TYPE":"U","NORAD_CAT_ID":5042,"ELEMENT_SET_NO":999,"REV_AT_EPOCH":63827,"BSTAR":0.0034316472,"MEAN_MOTION_DOT":0.00014525,"MEAN_MOTION_DDOT":0}]
